CCSDS_OMM_VERS = 2.0
CREATION_DATE  = 
ORIGINATOR     = 

OBJECT_NAME    = SL-14 R/B
OBJECT_ID      = 1986-046B
CENTER_NAME    = EARTH
REF_FRAME      = TEME
TIME_SYSTEM    = UTC
MEAN_ELEMENT_THEORY = SGP/SGP4

EPOCH          = 2026-03-21T11:01:59.144448
MEAN_MOTION    = 14.85601397
ECCENTRICITY   = .00228899
INCLINATION    = 82.4792
RA_OF_ASC_NODE = 69.0570
ARG_OF_PERICENTER = 185.2309
MEAN_ANOMALY   = 174.8672

EPHEMERIS_TYPE = 0
CLASSIFICATION_TYPE = U
NORAD_CAT_ID   = 16792
ELEMENT_SET_NO = 999
REV_AT_EPOCH   = 12815
BSTAR          = .50405759E-4
MEAN_MOTION_DOT = .462E-5
MEAN_MOTION_DDOT = 0

CCSDS_OMM_VERS = 2.0
CREATION_DATE  = 
ORIGINATOR     = 

OBJECT_NAME    = SL-14 R/B
OBJECT_ID      = 1986-055B
CENTER_NAME    = EARTH
REF_FRAME      = TEME
TIME_SYSTEM    = UTC
MEAN_ELEMENT_THEORY = SGP/SGP4

EPOCH          = 2026-03-21T14:24:15.961536
MEAN_MOTION    = 14.85652829
ECCENTRICITY   = .00174487
INCLINATION    = 82.5180
RA_OF_ASC_NODE = 115.4773
ARG_OF_PERICENTER = 294.8134
MEAN_ANOMALY   = 183.2921

EPHEMERIS_TYPE = 0
CLASSIFICATION_TYPE = U
NORAD_CAT_ID   = 16882
ELEMENT_SET_NO = 999
REV_AT_EPOCH   = 12113
BSTAR          = .4702525E-4
MEAN_MOTION_DOT = .432E-5
MEAN_MOTION_DDOT = 0

CCSDS_OMM_VERS = 2.0
CREATION_DATE  = 
ORIGINATOR     = 

OBJECT_NAME    = AJISAI (EGS)
OBJECT_ID      = 1986-061A
CENTER_NAME    = EARTH
REF_FRAME      = TEME
TIME_SYSTEM    = UTC
MEAN_ELEMENT_THEORY = SGP/SGP4

EPOCH          = 2026-03-21T14:39:18.085536
MEAN_MOTION    = 12.44515675
ECCENTRICITY   = .00113092
INCLINATION    = 50.0095
RA_OF_ASC_NODE = 56.6892
ARG_OF_PERICENTER = 317.7379
MEAN_ANOMALY   = 155.1116

EPHEMERIS_TYPE = 0
CLASSIFICATION_TYPE = U
NORAD_CAT_ID   = 16908
ELEMENT_SET_NO = 999
REV_AT_EPOCH   = 46948
BSTAR          = -.12154226E-3
MEAN_MOTION_DOT = -.115E-5
MEAN_MOTION_DDOT = 0

CCSDS_OMM_VERS = 2.0
CREATION_DATE  = 
ORIGINATOR     = 

OBJECT_NAME    = SL-14 R/B
OBJECT_ID      = 1987-024B
CENTER_NAME    = EARTH
REF_FRAME      = TEME
TIME_SYSTEM    = UTC
MEAN_ELEMENT_THEORY = SGP/SGP4

EPOCH          = 2026-03-21T13:20:51.309024
MEAN_MOTION    = 14.86143006
ECCENTRICITY   = .00172019
INCLINATION    = 82.5247
RA_OF_ASC_NODE = 81.6069
ARG_OF_PERICENTER = 217.5613
MEAN_ANOMALY   = 142.4403

EPHEMERIS_TYPE = 0
CLASSIFICATION_TYPE = U
NORAD_CAT_ID   = 17567
ELEMENT_SET_NO = 999
REV_AT_EPOCH   = 8989
BSTAR          = .50201492E-4
MEAN_MOTION_DOT = .465E-5
MEAN_MOTION_DDOT = 0

CCSDS_OMM_VERS = 2.0
CREATION_DATE  = 
ORIGINATOR     = 

OBJECT_NAME    = COSMOS 1833
OBJECT_ID      = 1987-027A
CENTER_NAME    = EARTH
REF_FRAME      = TEME
TIME_SYSTEM    = UTC
MEAN_ELEMENT_THEORY = SGP/SGP4

EPOCH          = 2026-03-21T14:40:22.573632
MEAN_MOTION    = 14.13050824
ECCENTRICITY   = .00236467
INCLINATION    = 70.9191
RA_OF_ASC_NODE = 300.9625
ARG_OF_PERICENTER = 197.2894
MEAN_ANOMALY   = 162.7424

EPHEMERIS_TYPE = 0
CLASSIFICATION_TYPE = U
NORAD_CAT_ID   = 17589
ELEMENT_SET_NO = 999
REV_AT_EPOCH   = 1200
BSTAR          = -.11076513E-3
MEAN_MOTION_DOT = -.255E-5
MEAN_MOTION_DDOT = 0

CCSDS_OMM_VERS = 2.0
CREATION_DATE  = 
ORIGINATOR     = 

OBJECT_NAME    = SL-16 R/B
OBJECT_ID      = 1987-027B
CENTER_NAME    = EARTH
REF_FRAME      = TEME
TIME_SYSTEM    = UTC
MEAN_ELEMENT_THEORY = SGP/SGP4

EPOCH          = 2026-03-21T13:12:40.627872
MEAN_MOTION    = 14.17166238
ECCENTRICITY   = .00029999
INCLINATION    = 70.9992
RA_OF_ASC_NODE = 251.4988
ARG_OF_PERICENTER = 114.9226
MEAN_ANOMALY   = 245.2210

EPHEMERIS_TYPE = 0
CLASSIFICATION_TYPE = U
NORAD_CAT_ID   = 17590
ELEMENT_SET_NO = 999
REV_AT_EPOCH   = 1702
BSTAR          = -.68112416E-4
MEAN_MOTION_DOT = -.185E-5
MEAN_MOTION_DDOT = 0

CCSDS_OMM_VERS = 2.0
CREATION_DATE  = 
ORIGINATOR     = 

OBJECT_NAME    = SL-14 R/B
OBJECT_ID      = 1987-038B
CENTER_NAME    = EARTH
REF_FRAME      = TEME
TIME_SYSTEM    = UTC
MEAN_ELEMENT_THEORY = SGP/SGP4

EPOCH          = 2026-03-21T13:22:23.968704
MEAN_MOTION    = 14.85379413
ECCENTRICITY   = .00205265
INCLINATION    = 82.4983
RA_OF_ASC_NODE = 285.6257
ARG_OF_PERICENTER = 123.0147
MEAN_ANOMALY   = 237.3045

EPHEMERIS_TYPE = 0
CLASSIFICATION_TYPE = U
NORAD_CAT_ID   = 17912
ELEMENT_SET_NO = 999
REV_AT_EPOCH   = 8099
BSTAR          = .47855258E-4
MEAN_MOTION_DOT = .438E-5
MEAN_MOTION_DDOT = 0

CCSDS_OMM_VERS = 2.0
CREATION_DATE  = 
ORIGINATOR     = 

OBJECT_NAME    = COSMOS 1844
OBJECT_ID      = 1987-041A
CENTER_NAME    = EARTH
REF_FRAME      = TEME
TIME_SYSTEM    = UTC
MEAN_ELEMENT_THEORY = SGP/SGP4

EPOCH          = 2026-03-21T11:49:07.783680
MEAN_MOTION    = 14.14551995
ECCENTRICITY   = .00306173
INCLINATION    = 70.9010
RA_OF_ASC_NODE = 9.2809
ARG_OF_PERICENTER = 0.7018
MEAN_ANOMALY   = 359.4141

EPHEMERIS_TYPE = 0
CLASSIFICATION_TYPE = U
NORAD_CAT_ID   = 17973
ELEMENT_SET_NO = 999
REV_AT_EPOCH   = 525
BSTAR          = .10863095E-3
MEAN_MOTION_DOT = .161E-5
MEAN_MOTION_DDOT = 0

CCSDS_OMM_VERS = 2.0
CREATION_DATE  = 
ORIGINATOR     = 

OBJECT_NAME    = SL-14 R/B
OBJECT_ID      = 1987-055B
CENTER_NAME    = EARTH
REF_FRAME      = TEME
TIME_SYSTEM    = UTC
MEAN_ELEMENT_THEORY = SGP/SGP4

EPOCH          = 2026-03-21T11:09:06.245568
MEAN_MOTION    = 14.85641335
ECCENTRICITY   = .00200831
INCLINATION    = 82.5021
RA_OF_ASC_NODE = 337.9363
ARG_OF_PERICENTER = 338.9064
MEAN_ANOMALY   = 21.1322

EPHEMERIS_TYPE = 0
CLASSIFICATION_TYPE = U
NORAD_CAT_ID   = 18153
ELEMENT_SET_NO = 999
REV_AT_EPOCH   = 7168
BSTAR          = .49517478E-4
MEAN_MOTION_DOT = .454E-5
MEAN_MOTION_DDOT = 0

CCSDS_OMM_VERS = 2.0
CREATION_DATE  = 
ORIGINATOR     = 

OBJECT_NAME    = COSMOS 1867
OBJECT_ID      = 1987-060A
CENTER_NAME    = EARTH
REF_FRAME      = TEME
TIME_SYSTEM    = UTC
MEAN_ELEMENT_THEORY = SGP/SGP4

EPOCH          = 2026-03-21T14:19:55.758432
MEAN_MOTION    = 14.31504803
ECCENTRICITY   = .00146683
INCLINATION    = 65.0092
RA_OF_ASC_NODE = 273.3574
ARG_OF_PERICENTER = 279.3495
MEAN_ANOMALY   = 80.5931

EPHEMERIS_TYPE = 0
CLASSIFICATION_TYPE = U
NORAD_CAT_ID   = 18187
ELEMENT_SET_NO = 999
REV_AT_EPOCH   = 2164
BSTAR          = .27833204E-4
MEAN_MOTION_DOT = -.26E-6
MEAN_MOTION_DDOT = 0

CCSDS_OMM_VERS = 2.0
CREATION_DATE  = 
ORIGINATOR     = 

OBJECT_NAME    = SL-14 R/B
OBJECT_ID      = 1988-001B
CENTER_NAME    = EARTH
REF_FRAME      = TEME
TIME_SYSTEM    = UTC
MEAN_ELEMENT_THEORY = SGP/SGP4

EPOCH          = 2026-03-21T09:26:34.704672
MEAN_MOTION    = 14.85540872
ECCENTRICITY   = .00176808
INCLINATION    = 82.5162
RA_OF_ASC_NODE = 184.3556
ARG_OF_PERICENTER = 195.1207
MEAN_ANOMALY   = 164.9483

EPHEMERIS_TYPE = 0
CLASSIFICATION_TYPE = U
NORAD_CAT_ID   = 18749
ELEMENT_SET_NO = 999
REV_AT_EPOCH   = 4376
BSTAR          = .56758611E-4
MEAN_MOTION_DOT = .516E-5
MEAN_MOTION_DDOT = 0

CCSDS_OMM_VERS = 2.0
CREATION_DATE  = 
ORIGINATOR     = 

OBJECT_NAME    = COSMOS 1933
OBJECT_ID      = 1988-020A
CENTER_NAME    = EARTH
REF_FRAME      = TEME
TIME_SYSTEM    = UTC
MEAN_ELEMENT_THEORY = SGP/SGP4

EPOCH          = 2026-03-21T12:33:27.503136
MEAN_MOTION    = 15.18088460
ECCENTRICITY   = .00048865
INCLINATION    = 82.5110
RA_OF_ASC_NODE = 239.2002
ARG_OF_PERICENTER = 144.1158
MEAN_ANOMALY   = 216.0405

EPHEMERIS_TYPE = 0
CLASSIFICATION_TYPE = U
NORAD_CAT_ID   = 18958
ELEMENT_SET_NO = 999
REV_AT_EPOCH   = 5202
BSTAR          = .27845813E-3
MEAN_MOTION_DOT = .5706E-4
MEAN_MOTION_DDOT = 0

